{
"type": "FeatureCollection",
"name": "tel_aviv_poi",
"crs": { "type": "name", "properties": { "name": "urn:ogc:def:crs:OGC:1.3:CRS84" } },
"features": [
{ "type": "Feature", "properties": { "element": "node", "id": 2470120263, "name": "הוט סינמה אשדוד", "tourism": null, "amenity": "cinema", "leisure": null, "opening_hours": null, "website": "https://hotcinema.co.il/theater/5" }, "geometry": { "type": "Point", "coordinates": [ 34.6389069, 31.7928269 ] } },
{ "type": "Feature", "properties": { "element": "node", "id": 3649077264, "name": null, "tourism": "viewpoint", "amenity": null, "leisure": null, "opening_hours": null, "website": null }, "geometry": { "type": "Point", "coordinates": [ 34.6456933, 31.8144322 ] } },
{ "type": "Feature", "properties": { "element": "node", "id": 3649102820, "name": "מצפה יונה", "tourism": "viewpoint", "amenity": null, "leisure": null, "opening_hours": null, "website": null }, "geometry": { "type": "Point", "coordinates": [ 34.6466141, 31.8138944 ] } },
{ "type": "Feature", "properties": { "element": "node", "id": 3887692439, "name": null, "tourism": "artwork", "amenity": null, "leisure": null, "opening_hours": null, "website": null }, "geometry": { "type": "Point", "coordinates": [ 34.6549997, 31.7827169 ] } },
{ "type": "Feature", "properties": { "element": "node", "id": 4217632396, "name": "עין השמש", "tourism": "artwork", "amenity": null, "leisure": null, "opening_hours": null, "website": null }, "geometry": { "type": "Point", "coordinates": [ 34.6220049, 31.771675 ] } },
{ "type": "Feature", "properties": { "element": "node", "id": 4253271299, "name": null, "tourism": "artwork", "amenity": null, "leisure": null, "opening_hours": null, "website": null }, "geometry": { "type": "Point", "coordinates": [ 34.6312529, 31.7711083 ] } },
{ "type": "Feature", "properties": { "element": "node", "id": 4253271306, "name": null, "tourism": "artwork", "amenity": null, "leisure": null, "opening_hours": null, "website": null }, "geometry": { "type": "Point", "coordinates": [ 34.6316163, 31.7719167 ] } },
{ "type": "Feature", "properties": { "element": "node", "id": 4323929581, "name": null, "tourism": "artwork", "amenity": null, "leisure": null, "opening_hours": null, "website": null }, "geometry": { "type": "Point", "coordinates": [ 34.6632164, 31.778848 ] } },
{ "type": "Feature", "properties": { "element": "node", "id": 4392496007, "name": null, "tourism": "artwork", "amenity": null, "leisure": null, "opening_hours": null, "website": null }, "geometry": { "type": "Point", "coordinates": [ 34.6408287, 31.7895941 ] } },
{ "type": "Feature", "properties": { "element": "node", "id": 4392496008, "name": null, "tourism": "artwork", "amenity": null, "leisure": null, "opening_hours": null, "website": null }, "geometry": { "type": "Point", "coordinates": [ 34.6411049, 31.790351 ] } },
{ "type": "Feature", "properties": { "element": "node", "id": 4392496013, "name": null, "tourism": "artwork", "amenity": null, "leisure": null, "opening_hours": null, "website": null }, "geometry": { "type": "Point", "coordinates": [ 34.6408334, 31.7912789 ] } },
{ "type": "Feature", "properties": { "element": "node", "id": 4411878482, "name": null, "tourism": "artwork", "amenity": null, "leisure": null, "opening_hours": null, "website": null }, "geometry": { "type": "Point", "coordinates": [ 34.6372502, 31.7794863 ] } },
{ "type": "Feature", "properties": { "element": "node", "id": 4442286334, "name": null, "tourism": "artwork", "amenity": null, "leisure": null, "opening_hours": null, "website": null }, "geometry": { "type": "Point", "coordinates": [ 34.6340752, 31.795885 ] } },
{ "type": "Feature", "properties": { "element": "node", "id": 4442286336, "name": null, "tourism": "artwork", "amenity": null, "leisure": null, "opening_hours": null, "website": null }, "geometry": { "type": "Point", "coordinates": [ 34.6334228, 31.7966844 ] } },
{ "type": "Feature", "properties": { "element": "node", "id": 4442286340, "name": null, "tourism": "artwork", "amenity": null, "leisure": null, "opening_hours": null, "website": null }, "geometry": { "type": "Point", "coordinates": [ 34.6346257, 31.7970588 ] } },
{ "type": "Feature", "properties": { "element": "node", "id": 4442409981, "name": null, "tourism": "artwork", "amenity": null, "leisure": null, "opening_hours": null, "website": null }, "geometry": { "type": "Point", "coordinates": [ 34.635633, 31.7961831 ] } },
{ "type": "Feature", "properties": { "element": "node", "id": 4442434077, "name": null, "tourism": "viewpoint", "amenity": null, "leisure": null, "opening_hours": null, "website": null }, "geometry": { "type": "Point", "coordinates": [ 34.6350495, 31.7979088 ] } },
{ "type": "Feature", "properties": { "element": "node", "id": 4442517130, "name": "גיל שניאור", "tourism": "artwork", "amenity": null, "leisure": null, "opening_hours": null, "website": null }, "geometry": { "type": "Point", "coordinates": [ 34.6305549, 31.7958079 ] } },
{ "type": "Feature", "properties": { "element": "node", "id": 4442603105, "name": null, "tourism": "artwork", "amenity": null, "leisure": null, "opening_hours": null, "website": null }, "geometry": { "type": "Point", "coordinates": [ 34.6277187, 31.7873824 ] } },
{ "type": "Feature", "properties": { "element": "node", "id": 4623994864, "name": null, "tourism": "artwork", "amenity": null, "leisure": null, "opening_hours": null, "website": null }, "geometry": { "type": "Point", "coordinates": [ 34.6470185, 31.7867576 ] } },
{ "type": "Feature", "properties": { "element": "node", "id": 5334819923, "name": null, "tourism": "artwork", "amenity": null, "leisure": null, "opening_hours": null, "website": null }, "geometry": { "type": "Point", "coordinates": [ 34.632099, 31.7773127 ] } },
{ "type": "Feature", "properties": { "element": "node", "id": 5914350233, "name": null, "tourism": null, "amenity": null, "leisure": "park", "opening_hours": null, "website": null }, "geometry": { "type": "Point", "coordinates": [ 34.6461751, 31.7794694 ] } },
{ "type": "Feature", "properties": { "element": "node", "id": 5914360775, "name": null, "tourism": null, "amenity": null, "leisure": "park", "opening_hours": null, "website": null }, "geometry": { "type": "Point", "coordinates": [ 34.645231, 31.7799642 ] } },
{ "type": "Feature", "properties": { "element": "node", "id": 6028978585, "name": "שפך נחל לכיש", "tourism": "attraction", "amenity": null, "leisure": null, "opening_hours": null, "website": "https://anattour.co.il/%D7%98%D7%99%D7%99%D7%9C%D7%AA-%D7%A4%D7%90%D7%A8%D7%A7-%D7%A0%D7%97%D7%9C-%D7%9C%D7%9B%D7%99%D7%A9-%D7%91%D7%90%D7%A9%D7%93%D7%95%D7%93-%D7%9E%D7%93%D7%A9%D7%90%D7%95%D7%AA-%D7%92%D7%9F-%D7%97/" }, "geometry": { "type": "Point", "coordinates": [ 34.6412146, 31.8149474 ] } },
{ "type": "Feature", "properties": { "element": "node", "id": 6508849685, "name": null, "tourism": "attraction", "amenity": null, "leisure": null, "opening_hours": null, "website": null }, "geometry": { "type": "Point", "coordinates": [ 34.6223345, 31.7716889 ] } },
{ "type": "Feature", "properties": { "element": "node", "id": 6509134885, "name": null, "tourism": "attraction", "amenity": null, "leisure": null, "opening_hours": null, "website": null }, "geometry": { "type": "Point", "coordinates": [ 34.6345045, 31.7981426 ] } },
{ "type": "Feature", "properties": { "element": "node", "id": 6509139785, "name": null, "tourism": "viewpoint", "amenity": null, "leisure": null, "opening_hours": null, "website": null }, "geometry": { "type": "Point", "coordinates": [ 34.6354096, 31.7972534 ] } },
{ "type": "Feature", "properties": { "element": "node", "id": 6509193385, "name": "Кит", "tourism": "attraction", "amenity": null, "leisure": null, "opening_hours": null, "website": null }, "geometry": { "type": "Point", "coordinates": [ 34.6479413, 31.8141452 ] } },
{ "type": "Feature", "properties": { "element": "node", "id": 9311270704, "name": null, "tourism": "artwork", "amenity": null, "leisure": null, "opening_hours": null, "website": null }, "geometry": { "type": "Point", "coordinates": [ 34.6504472, 31.7935684 ] } },
{ "type": "Feature", "properties": { "element": "node", "id": 9311270705, "name": null, "tourism": "artwork", "amenity": null, "leisure": null, "opening_hours": null, "website": null }, "geometry": { "type": "Point", "coordinates": [ 34.6504808, 31.7934382 ] } },
{ "type": "Feature", "properties": { "element": "node", "id": 9311270706, "name": null, "tourism": "artwork", "amenity": null, "leisure": null, "opening_hours": null, "website": null }, "geometry": { "type": "Point", "coordinates": [ 34.6503985, 31.7934916 ] } },
{ "type": "Feature", "properties": { "element": "node", "id": 9311270707, "name": null, "tourism": "artwork", "amenity": null, "leisure": null, "opening_hours": null, "website": null }, "geometry": { "type": "Point", "coordinates": [ 34.6503516, 31.7934187 ] } },
{ "type": "Feature", "properties": { "element": "node", "id": 9311270708, "name": null, "tourism": "artwork", "amenity": null, "leisure": null, "opening_hours": null, "website": null }, "geometry": { "type": "Point", "coordinates": [ 34.6503498, 31.7933187 ] } },
{ "type": "Feature", "properties": { "element": "node", "id": 9311270709, "name": null, "tourism": "artwork", "amenity": null, "leisure": null, "opening_hours": null, "website": null }, "geometry": { "type": "Point", "coordinates": [ 34.6504082, 31.7932555 ] } },
{ "type": "Feature", "properties": { "element": "node", "id": 9311270710, "name": null, "tourism": "artwork", "amenity": null, "leisure": null, "opening_hours": null, "website": null }, "geometry": { "type": "Point", "coordinates": [ 34.6502914, 31.7932217 ] } },
{ "type": "Feature", "properties": { "element": "node", "id": 9311270711, "name": null, "tourism": "artwork", "amenity": null, "leisure": null, "opening_hours": null, "website": null }, "geometry": { "type": "Point", "coordinates": [ 34.6502419, 31.7930525 ] } },
{ "type": "Feature", "properties": { "element": "node", "id": 9311270712, "name": null, "tourism": "artwork", "amenity": null, "leisure": null, "opening_hours": null, "website": null }, "geometry": { "type": "Point", "coordinates": [ 34.6501552, 31.7929803 ] } },
{ "type": "Feature", "properties": { "element": "node", "id": 9311270713, "name": null, "tourism": "artwork", "amenity": null, "leisure": null, "opening_hours": null, "website": null }, "geometry": { "type": "Point", "coordinates": [ 34.650141, 31.7928953 ] } },
{ "type": "Feature", "properties": { "element": "node", "id": 9311270714, "name": null, "tourism": "artwork", "amenity": null, "leisure": null, "opening_hours": null, "website": null }, "geometry": { "type": "Point", "coordinates": [ 34.6500499, 31.7928644 ] } },
{ "type": "Feature", "properties": { "element": "node", "id": 9311270715, "name": null, "tourism": "artwork", "amenity": null, "leisure": null, "opening_hours": null, "website": null }, "geometry": { "type": "Point", "coordinates": [ 34.6500331, 31.7927915 ] } },
{ "type": "Feature", "properties": { "element": "node", "id": 9311270716, "name": null, "tourism": "artwork", "amenity": null, "leisure": null, "opening_hours": null, "website": null }, "geometry": { "type": "Point", "coordinates": [ 34.6499474, 31.7926944 ] } },
{ "type": "Feature", "properties": { "element": "node", "id": 9311273617, "name": null, "tourism": "artwork", "amenity": null, "leisure": null, "opening_hours": null, "website": null }, "geometry": { "type": "Point", "coordinates": [ 34.6498973, 31.7926316 ] } },
{ "type": "Feature", "properties": { "element": "node", "id": 10091759890, "name": "ספיראלה", "tourism": "artwork", "amenity": null, "leisure": null, "opening_hours": null, "website": null }, "geometry": { "type": "Point", "coordinates": [ 34.6374155, 31.7909515 ] } },
{ "type": "Feature", "properties": { "element": "node", "id": 10959540126, "name": "מצפה יוחאי", "tourism": "viewpoint", "amenity": null, "leisure": null, "opening_hours": null, "website": null }, "geometry": { "type": "Point", "coordinates": [ 34.6226582, 31.7817384 ] } },
{ "type": "Feature", "properties": { "element": "node", "id": 10990025119, "name": null, "tourism": "artwork", "amenity": null, "leisure": null, "opening_hours": null, "website": null }, "geometry": { "type": "Point", "coordinates": [ 34.6647888, 31.7768245 ] } },
{ "type": "Feature", "properties": { "element": "node", "id": 11228104773, "name": null, "tourism": "artwork", "amenity": null, "leisure": null, "opening_hours": null, "website": null }, "geometry": { "type": "Point", "coordinates": [ 34.6333535, 31.8010471 ] } },
{ "type": "Feature", "properties": { "element": "node", "id": 11230792936, "name": null, "tourism": "viewpoint", "amenity": null, "leisure": null, "opening_hours": null, "website": null }, "geometry": { "type": "Point", "coordinates": [ 34.6217816, 31.7804693 ] } },
{ "type": "Feature", "properties": { "element": "node", "id": 11626237710, "name": "אנדרטת הנר", "tourism": "artwork", "amenity": null, "leisure": null, "opening_hours": null, "website": null }, "geometry": { "type": "Point", "coordinates": [ 34.644061, 31.8083488 ] } },
{ "type": "Feature", "properties": { "element": "node", "id": 11967576825, "name": null, "tourism": "artwork", "amenity": null, "leisure": null, "opening_hours": null, "website": null }, "geometry": { "type": "Point", "coordinates": [ 34.6180651, 31.773068 ] } },
{ "type": "Feature", "properties": { "element": "node", "id": 11967576831, "name": null, "tourism": "viewpoint", "amenity": null, "leisure": null, "opening_hours": null, "website": null }, "geometry": { "type": "Point", "coordinates": [ 34.6191588, 31.7743327 ] } },
{ "type": "Feature", "properties": { "element": "node", "id": 11967611377, "name": null, "tourism": "artwork", "amenity": null, "leisure": null, "opening_hours": null, "website": null }, "geometry": { "type": "Point", "coordinates": [ 34.617501, 31.7728327 ] } },
{ "type": "Feature", "properties": { "element": "node", "id": 11989732946, "name": null, "tourism": "artwork", "amenity": null, "leisure": null, "opening_hours": null, "website": null }, "geometry": { "type": "Point", "coordinates": [ 34.6355563, 31.799895 ] } },
{ "type": "Feature", "properties": { "element": "node", "id": 11989732947, "name": null, "tourism": "artwork", "amenity": null, "leisure": null, "opening_hours": null, "website": null }, "geometry": { "type": "Point", "coordinates": [ 34.6355124, 31.7998939 ] } },
{ "type": "Feature", "properties": { "element": "node", "id": 12050157748, "name": null, "tourism": "artwork", "amenity": null, "leisure": null, "opening_hours": null, "website": null }, "geometry": { "type": "Point", "coordinates": [ 34.634629, 31.7940152 ] } },
{ "type": "Feature", "properties": { "element": "node", "id": 12175580086, "name": "בדרכו של חן", "tourism": "artwork", "amenity": null, "leisure": null, "opening_hours": null, "website": null }, "geometry": { "type": "Point", "coordinates": [ 34.6490833, 31.8170924 ] } },
{ "type": "Feature", "properties": { "element": "node", "id": 12193385820, "name": null, "tourism": "artwork", "amenity": null, "leisure": null, "opening_hours": null, "website": null }, "geometry": { "type": "Point", "coordinates": [ 34.6426854, 31.7815804 ] } },
{ "type": "Feature", "properties": { "element": "node", "id": 12193385821, "name": null, "tourism": "artwork", "amenity": null, "leisure": null, "opening_hours": null, "website": null }, "geometry": { "type": "Point", "coordinates": [ 34.6503552, 31.7791043 ] } },
{ "type": "Feature", "properties": { "element": "node", "id": 12211421484, "name": null, "tourism": "artwork", "amenity": null, "leisure": null, "opening_hours": null, "website": null }, "geometry": { "type": "Point", "coordinates": [ 34.6379396, 31.7982264 ] } },
{ "type": "Feature", "properties": { "element": "node", "id": 12270563283, "name": null, "tourism": "viewpoint", "amenity": null, "leisure": null, "opening_hours": null, "website": null }, "geometry": { "type": "Point", "coordinates": [ 34.6269342, 31.7926781 ] } },
{ "type": "Feature", "properties": { "element": "node", "id": 12291957079, "name": "מקום בלב", "tourism": "artwork", "amenity": null, "leisure": null, "opening_hours": null, "website": null }, "geometry": { "type": "Point", "coordinates": [ 34.6348011, 31.7980957 ] } },
{ "type": "Feature", "properties": { "element": "node", "id": 12452852617, "name": "חנוכייה ענקית", "tourism": "artwork", "amenity": null, "leisure": null, "opening_hours": null, "website": null }, "geometry": { "type": "Point", "coordinates": [ 34.632836, 31.7663017 ] } },
{ "type": "Feature", "properties": { "element": "node", "id": 12792079086, "name": null, "tourism": "artwork", "amenity": null, "leisure": null, "opening_hours": null, "website": null }, "geometry": { "type": "Point", "coordinates": [ 34.6428756, 31.7881735 ] } },
{ "type": "Feature", "properties": { "element": "relation", "id": 2674121, "name": null, "tourism": null, "amenity": null, "leisure": "park", "opening_hours": null, "website": null }, "geometry": { "type": "Point", "coordinates": [ 34.638795611959516, 31.78628818424944 ] } },
{ "type": "Feature", "properties": { "element": "relation", "id": 3231325, "name": null, "tourism": null, "amenity": null, "leisure": "park", "opening_hours": null, "website": null }, "geometry": { "type": "Point", "coordinates": [ 34.62785194193026, 31.771356517995727 ] } },
{ "type": "Feature", "properties": { "element": "relation", "id": 6659337, "name": "פארק עד הלום", "tourism": null, "amenity": null, "leisure": "park", "opening_hours": null, "website": null }, "geometry": { "type": "Point", "coordinates": [ 34.66674362509535, 31.780858685333051 ] } },
{ "type": "Feature", "properties": { "element": "relation", "id": 18438171, "name": null, "tourism": null, "amenity": null, "leisure": "park", "opening_hours": null, "website": null }, "geometry": { "type": "Point", "coordinates": [ 34.6693104611482, 31.823110257853557 ] } },
{ "type": "Feature", "properties": { "element": "way", "id": 73508323, "name": "פארק המחתרות", "tourism": null, "amenity": null, "leisure": "park", "opening_hours": null, "website": null }, "geometry": { "type": "Point", "coordinates": [ 34.643248454774714, 31.794760453802461 ] } },
{ "type": "Feature", "properties": { "element": "way", "id": 73508329, "name": null, "tourism": null, "amenity": null, "leisure": "park", "opening_hours": null, "website": null }, "geometry": { "type": "Point", "coordinates": [ 34.646611468343195, 31.796372295241692 ] } },
{ "type": "Feature", "properties": { "element": "way", "id": 73508352, "name": "גן אברהם ברוידס", "tourism": null, "amenity": null, "leisure": "park", "opening_hours": null, "website": null }, "geometry": { "type": "Point", "coordinates": [ 34.645313726375221, 31.796423304847927 ] } },
{ "type": "Feature", "properties": { "element": "way", "id": 73508429, "name": null, "tourism": null, "amenity": null, "leisure": "park", "opening_hours": null, "website": null }, "geometry": { "type": "Point", "coordinates": [ 34.638981446117491, 31.798561994646633 ] } },
{ "type": "Feature", "properties": { "element": "way", "id": 73508433, "name": null, "tourism": null, "amenity": null, "leisure": "park", "opening_hours": null, "website": null }, "geometry": { "type": "Point", "coordinates": [ 34.646268977805235, 31.797101558608997 ] } },
{ "type": "Feature", "properties": { "element": "way", "id": 73603168, "name": null, "tourism": null, "amenity": null, "leisure": "park", "opening_hours": null, "website": null }, "geometry": { "type": "Point", "coordinates": [ 34.63754124924148, 31.779344445003851 ] } },
{ "type": "Feature", "properties": { "element": "way", "id": 97558157, "name": "גן בורדו", "tourism": null, "amenity": null, "leisure": "park", "opening_hours": null, "website": null }, "geometry": { "type": "Point", "coordinates": [ 34.639555407160188, 31.801780559522459 ] } },
{ "type": "Feature", "properties": { "element": "way", "id": 97592360, "name": null, "tourism": null, "amenity": null, "leisure": "park", "opening_hours": null, "website": null }, "geometry": { "type": "Point", "coordinates": [ 34.640350994458139, 31.797765447013965 ] } },
{ "type": "Feature", "properties": { "element": "way", "id": 97725448, "name": null, "tourism": null, "amenity": null, "leisure": "park", "opening_hours": null, "website": null }, "geometry": { "type": "Point", "coordinates": [ 34.649078584568038, 31.80168721162822 ] } },
{ "type": "Feature", "properties": { "element": "way", "id": 97725456, "name": null, "tourism": null, "amenity": null, "leisure": "park", "opening_hours": null, "website": null }, "geometry": { "type": "Point", "coordinates": [ 34.645506841905835, 31.795199092142056 ] } },
{ "type": "Feature", "properties": { "element": "way", "id": 97725461, "name": "גן הפסלים", "tourism": null, "amenity": null, "leisure": "park", "opening_hours": null, "website": null }, "geometry": { "type": "Point", "coordinates": [ 34.650109646749215, 31.792856664455755 ] } },
{ "type": "Feature", "properties": { "element": "way", "id": 97725467, "name": null, "tourism": null, "amenity": null, "leisure": "park", "opening_hours": null, "website": null }, "geometry": { "type": "Point", "coordinates": [ 34.649786361786177, 31.794892940792586 ] } },
{ "type": "Feature", "properties": { "element": "way", "id": 97725470, "name": "גן אלון", "tourism": null, "amenity": null, "leisure": "park", "opening_hours": null, "website": null }, "geometry": { "type": "Point", "coordinates": [ 34.65246900218682, 31.796790161723628 ] } },
{ "type": "Feature", "properties": { "element": "way", "id": 98483037, "name": "היכל התרבות אשדוד", "tourism": null, "amenity": "theatre", "leisure": null, "opening_hours": null, "website": null }, "geometry": { "type": "Point", "coordinates": [ 34.636272398123992, 31.793171527566777 ] } },
{ "type": "Feature", "properties": { "element": "way", "id": 100596584, "name": "גן החרשים", "tourism": null, "amenity": null, "leisure": "park", "opening_hours": null, "website": null }, "geometry": { "type": "Point", "coordinates": [ 34.649901920552267, 31.781226007401781 ] } },
{ "type": "Feature", "properties": { "element": "way", "id": 100596594, "name": null, "tourism": null, "amenity": null, "leisure": "park", "opening_hours": null, "website": null }, "geometry": { "type": "Point", "coordinates": [ 34.653273272146265, 31.78220331694909 ] } },
{ "type": "Feature", "properties": { "element": "way", "id": 100596626, "name": "גן הדואר", "tourism": null, "amenity": null, "leisure": "park", "opening_hours": null, "website": null }, "geometry": { "type": "Point", "coordinates": [ 34.65064155179239, 31.791924933560221 ] } },
{ "type": "Feature", "properties": { "element": "way", "id": 100596653, "name": "פארק בן גוריון", "tourism": null, "amenity": null, "leisure": "park", "opening_hours": null, "website": null }, "geometry": { "type": "Point", "coordinates": [ 34.655828424132409, 31.802628193326786 ] } },
{ "type": "Feature", "properties": { "element": "way", "id": 100596677, "name": null, "tourism": null, "amenity": null, "leisure": "park", "opening_hours": null, "website": null }, "geometry": { "type": "Point", "coordinates": [ 34.665084197100143, 31.810439070209366 ] } },
{ "type": "Feature", "properties": { "element": "way", "id": 100597337, "name": null, "tourism": null, "amenity": null, "leisure": "park", "opening_hours": null, "website": null }, "geometry": { "type": "Point", "coordinates": [ 34.644310747562081, 31.781905072940212 ] } },
{ "type": "Feature", "properties": { "element": "way", "id": 100597349, "name": null, "tourism": null, "amenity": null, "leisure": "park", "opening_hours": null, "website": null }, "geometry": { "type": "Point", "coordinates": [ 34.667849403317547, 31.789030401190846 ] } },
{ "type": "Feature", "properties": { "element": "way", "id": 100598560, "name": null, "tourism": null, "amenity": null, "leisure": "park", "opening_hours": null, "website": null }, "geometry": { "type": "Point", "coordinates": [ 34.640077514895616, 31.780876316649106 ] } },
{ "type": "Feature", "properties": { "element": "way", "id": 100599157, "name": "גן גבעת יונה", "tourism": null, "amenity": null, "leisure": "park", "opening_hours": null, "website": null }, "geometry": { "type": "Point", "coordinates": [ 34.646460148032787, 31.814063828932831 ] } },
{ "type": "Feature", "properties": { "element": "way", "id": 100599179, "name": null, "tourism": null, "amenity": null, "leisure": "park", "opening_hours": null, "website": null }, "geometry": { "type": "Point", "coordinates": [ 34.640815724006096, 31.812165729922182 ] } },
{ "type": "Feature", "properties": { "element": "way", "id": 100599601, "name": null, "tourism": null, "amenity": null, "leisure": "park", "opening_hours": null, "website": null }, "geometry": { "type": "Point", "coordinates": [ 34.6269349, 31.78466245 ] } },
{ "type": "Feature", "properties": { "element": "way", "id": 100599605, "name": "גן אלישבע", "tourism": null, "amenity": null, "leisure": "park", "opening_hours": null, "website": null }, "geometry": { "type": "Point", "coordinates": [ 34.641881783687097, 31.809319975706767 ] } },
{ "type": "Feature", "properties": { "element": "way", "id": 100616049, "name": null, "tourism": null, "amenity": null, "leisure": "park", "opening_hours": null, "website": null }, "geometry": { "type": "Point", "coordinates": [ 34.648697973845714, 31.776703985836622 ] } },
{ "type": "Feature", "properties": { "element": "way", "id": 100616054, "name": null, "tourism": null, "amenity": null, "leisure": "park", "opening_hours": null, "website": null }, "geometry": { "type": "Point", "coordinates": [ 34.642041570298304, 31.78212259826492 ] } },
{ "type": "Feature", "properties": { "element": "way", "id": 100616070, "name": null, "tourism": null, "amenity": null, "leisure": "park", "opening_hours": null, "website": null }, "geometry": { "type": "Point", "coordinates": [ 34.642230850960502, 31.774736680501107 ] } },
{ "type": "Feature", "properties": { "element": "way", "id": 100616071, "name": null, "tourism": null, "amenity": null, "leisure": "park", "opening_hours": null, "website": null }, "geometry": { "type": "Point", "coordinates": [ 34.644575517138556, 31.777208947707681 ] } },
{ "type": "Feature", "properties": { "element": "way", "id": 100616076, "name": "גן לב", "tourism": null, "amenity": null, "leisure": "park", "opening_hours": null, "website": null }, "geometry": { "type": "Point", "coordinates": [ 34.645011944860123, 31.775112682702595 ] } },
{ "type": "Feature", "properties": { "element": "way", "id": 100616084, "name": null, "tourism": null, "amenity": null, "leisure": "park", "opening_hours": null, "website": null }, "geometry": { "type": "Point", "coordinates": [ 34.629099466666659, 31.78478823333333 ] } },
{ "type": "Feature", "properties": { "element": "way", "id": 100616086, "name": null, "tourism": null, "amenity": null, "leisure": "park", "opening_hours": null, "website": null }, "geometry": { "type": "Point", "coordinates": [ 34.64303175, 31.77265895 ] } },
{ "type": "Feature", "properties": { "element": "way", "id": 100618505, "name": null, "tourism": null, "amenity": null, "leisure": "park", "opening_hours": null, "website": null }, "geometry": { "type": "Point", "coordinates": [ 34.625601970832292, 31.774623354525566 ] } },
{ "type": "Feature", "properties": { "element": "way", "id": 100618512, "name": null, "tourism": null, "amenity": null, "leisure": "park", "opening_hours": null, "website": null }, "geometry": { "type": "Point", "coordinates": [ 34.630221011061231, 31.76955890533225 ] } },
{ "type": "Feature", "properties": { "element": "way", "id": 100618521, "name": null, "tourism": null, "amenity": null, "leisure": "park", "opening_hours": null, "website": null }, "geometry": { "type": "Point", "coordinates": [ 34.631795608658692, 31.774475809605601 ] } },
{ "type": "Feature", "properties": { "element": "way", "id": 100618531, "name": null, "tourism": null, "amenity": null, "leisure": "park", "opening_hours": null, "website": null }, "geometry": { "type": "Point", "coordinates": [ 34.62506382864148, 31.776600547809505 ] } },
{ "type": "Feature", "properties": { "element": "way", "id": 100618533, "name": "יער מאכל קהילתי", "tourism": null, "amenity": null, "leisure": "park", "opening_hours": null, "website": null }, "geometry": { "type": "Point", "coordinates": [ 34.630689960210795, 31.775500547662141 ] } },
{ "type": "Feature", "properties": { "element": "way", "id": 100618545, "name": null, "tourism": null, "amenity": null, "leisure": "park", "opening_hours": null, "website": null }, "geometry": { "type": "Point", "coordinates": [ 34.627394362422734, 31.774968863760698 ] } },
{ "type": "Feature", "properties": { "element": "way", "id": 100618547, "name": "גן עמוס דביר", "tourism": null, "amenity": null, "leisure": "park", "opening_hours": null, "website": null }, "geometry": { "type": "Point", "coordinates": [ 34.629029707636107, 31.775869485062302 ] } },
{ "type": "Feature", "properties": { "element": "way", "id": 100629195, "name": null, "tourism": null, "amenity": null, "leisure": "park", "opening_hours": null, "website": null }, "geometry": { "type": "Point", "coordinates": [ 34.649022462141261, 31.798265571077874 ] } },
{ "type": "Feature", "properties": { "element": "way", "id": 100629859, "name": "גן השיקמה", "tourism": null, "amenity": null, "leisure": "park", "opening_hours": null, "website": null }, "geometry": { "type": "Point", "coordinates": [ 34.653899186102748, 31.786788580487706 ] } },
{ "type": "Feature", "properties": { "element": "way", "id": 101090529, "name": null, "tourism": null, "amenity": null, "leisure": "park", "opening_hours": null, "website": null }, "geometry": { "type": "Point", "coordinates": [ 34.656272819084954, 31.794457995263425 ] } },
{ "type": "Feature", "properties": { "element": "way", "id": 101090551, "name": null, "tourism": null, "amenity": null, "leisure": "park", "opening_hours": null, "website": null }, "geometry": { "type": "Point", "coordinates": [ 34.659912122997028, 31.79090792343402 ] } },
{ "type": "Feature", "properties": { "element": "way", "id": 101090555, "name": null, "tourism": null, "amenity": null, "leisure": "park", "opening_hours": null, "website": null }, "geometry": { "type": "Point", "coordinates": [ 34.661541150000012, 31.79196045 ] } },
{ "type": "Feature", "properties": { "element": "way", "id": 101090647, "name": null, "tourism": null, "amenity": null, "leisure": "park", "opening_hours": null, "website": null }, "geometry": { "type": "Point", "coordinates": [ 34.662155947092735, 31.791396080379304 ] } },
{ "type": "Feature", "properties": { "element": "way", "id": 101976169, "name": null, "tourism": null, "amenity": null, "leisure": "park", "opening_hours": null, "website": null }, "geometry": { "type": "Point", "coordinates": [ 34.633350726614999, 31.79329967668933 ] } },
{ "type": "Feature", "properties": { "element": "way", "id": 101976178, "name": "מרכז תרבות מונארט", "tourism": null, "amenity": "arts_centre", "leisure": null, "opening_hours": null, "website": null }, "geometry": { "type": "Point", "coordinates": [ 34.637222452388443, 31.791936591382775 ] } },
{ "type": "Feature", "properties": { "element": "way", "id": 102199784, "name": null, "tourism": null, "amenity": null, "leisure": "park", "opening_hours": null, "website": null }, "geometry": { "type": "Point", "coordinates": [ 34.648769458674842, 31.815157214540644 ] } },
{ "type": "Feature", "properties": { "element": "way", "id": 102199808, "name": null, "tourism": null, "amenity": null, "leisure": "park", "opening_hours": null, "website": null }, "geometry": { "type": "Point", "coordinates": [ 34.644284170123882, 31.812931602375894 ] } },
{ "type": "Feature", "properties": { "element": "way", "id": 102252758, "name": null, "tourism": null, "amenity": null, "leisure": "park", "opening_hours": null, "website": null }, "geometry": { "type": "Point", "coordinates": [ 34.63948628612517, 31.811930886098157 ] } },
{ "type": "Feature", "properties": { "element": "way", "id": 102252761, "name": null, "tourism": null, "amenity": null, "leisure": "park", "opening_hours": null, "website": null }, "geometry": { "type": "Point", "coordinates": [ 34.643910769519294, 31.81028656811295 ] } },
{ "type": "Feature", "properties": { "element": "way", "id": 102252835, "name": null, "tourism": null, "amenity": null, "leisure": "park", "opening_hours": null, "website": null }, "geometry": { "type": "Point", "coordinates": [ 34.642477155867567, 31.806985563987233 ] } },
{ "type": "Feature", "properties": { "element": "way", "id": 102252841, "name": null, "tourism": null, "amenity": null, "leisure": "park", "opening_hours": null, "website": null }, "geometry": { "type": "Point", "coordinates": [ 34.646027952304664, 31.805457644855306 ] } },
{ "type": "Feature", "properties": { "element": "way", "id": 102253038, "name": null, "tourism": null, "amenity": null, "leisure": "park", "opening_hours": null, "website": null }, "geometry": { "type": "Point", "coordinates": [ 34.652940706260331, 31.807445995718606 ] } },
{ "type": "Feature", "properties": { "element": "way", "id": 102253039, "name": null, "tourism": null, "amenity": null, "leisure": "park", "opening_hours": null, "website": null }, "geometry": { "type": "Point", "coordinates": [ 34.646357199277325, 31.810170024566929 ] } },
{ "type": "Feature", "properties": { "element": "way", "id": 112173906, "name": null, "tourism": null, "amenity": null, "leisure": "park", "opening_hours": null, "website": null }, "geometry": { "type": "Point", "coordinates": [ 34.66086095970914, 31.78418694283177 ] } },
{ "type": "Feature", "properties": { "element": "way", "id": 112174745, "name": null, "tourism": null, "amenity": null, "leisure": "park", "opening_hours": null, "website": null }, "geometry": { "type": "Point", "coordinates": [ 34.665832325098847, 31.787898815643111 ] } },
{ "type": "Feature", "properties": { "element": "way", "id": 112175096, "name": "גן הלפרין", "tourism": null, "amenity": null, "leisure": "park", "opening_hours": null, "website": null }, "geometry": { "type": "Point", "coordinates": [ 34.656875831252322, 31.792002430718178 ] } },
{ "type": "Feature", "properties": { "element": "way", "id": 112175107, "name": "גן שילו", "tourism": null, "amenity": null, "leisure": "park", "opening_hours": null, "website": null }, "geometry": { "type": "Point", "coordinates": [ 34.656468481865645, 31.790549101165873 ] } },
{ "type": "Feature", "properties": { "element": "way", "id": 119647224, "name": null, "tourism": null, "amenity": null, "leisure": "park", "opening_hours": null, "website": null }, "geometry": { "type": "Point", "coordinates": [ 34.648161720932997, 31.78269651292829 ] } },
{ "type": "Feature", "properties": { "element": "way", "id": 119760067, "name": null, "tourism": null, "amenity": null, "leisure": "park", "opening_hours": null, "website": null }, "geometry": { "type": "Point", "coordinates": [ 34.653696414583543, 31.788755028227339 ] } },
{ "type": "Feature", "properties": { "element": "way", "id": 119910541, "name": null, "tourism": null, "amenity": null, "leisure": "park", "opening_hours": null, "website": null }, "geometry": { "type": "Point", "coordinates": [ 34.649505934629296, 31.77682299057674 ] } },
{ "type": "Feature", "properties": { "element": "way", "id": 119910543, "name": null, "tourism": null, "amenity": null, "leisure": "park", "opening_hours": null, "website": null }, "geometry": { "type": "Point", "coordinates": [ 34.646913879566291, 31.772638205963837 ] } },
{ "type": "Feature", "properties": { "element": "way", "id": 119910548, "name": null, "tourism": null, "amenity": null, "leisure": "park", "opening_hours": null, "website": null }, "geometry": { "type": "Point", "coordinates": [ 34.645392919994528, 31.773451114224333 ] } },
{ "type": "Feature", "properties": { "element": "way", "id": 119910555, "name": null, "tourism": null, "amenity": null, "leisure": "park", "opening_hours": null, "website": null }, "geometry": { "type": "Point", "coordinates": [ 34.647388103771455, 31.776196928507684 ] } },
{ "type": "Feature", "properties": { "element": "way", "id": 119910942, "name": null, "tourism": null, "amenity": null, "leisure": "park", "opening_hours": null, "website": null }, "geometry": { "type": "Point", "coordinates": [ 34.64536523600362, 31.777322776202407 ] } },
{ "type": "Feature", "properties": { "element": "way", "id": 119910955, "name": "גן אבנר גרעין", "tourism": null, "amenity": null, "leisure": "park", "opening_hours": null, "website": null }, "geometry": { "type": "Point", "coordinates": [ 34.643423603153188, 31.775966983133777 ] } },
{ "type": "Feature", "properties": { "element": "way", "id": 119911627, "name": null, "tourism": null, "amenity": null, "leisure": "park", "opening_hours": null, "website": null }, "geometry": { "type": "Point", "coordinates": [ 34.646447719024216, 31.772135003644824 ] } },
{ "type": "Feature", "properties": { "element": "way", "id": 119912111, "name": null, "tourism": null, "amenity": null, "leisure": "park", "opening_hours": null, "website": null }, "geometry": { "type": "Point", "coordinates": [ 34.634325367115338, 31.772401172678322 ] } },
{ "type": "Feature", "properties": { "element": "way", "id": 119912114, "name": null, "tourism": null, "amenity": null, "leisure": "park", "opening_hours": null, "website": null }, "geometry": { "type": "Point", "coordinates": [ 34.635342464909641, 31.773796838757946 ] } },
{ "type": "Feature", "properties": { "element": "way", "id": 119912115, "name": null, "tourism": null, "amenity": null, "leisure": "park", "opening_hours": null, "website": null }, "geometry": { "type": "Point", "coordinates": [ 34.636415445839603, 31.77347302452047 ] } },
{ "type": "Feature", "properties": { "element": "way", "id": 120402772, "name": null, "tourism": null, "amenity": null, "leisure": "park", "opening_hours": null, "website": null }, "geometry": { "type": "Point", "coordinates": [ 34.660158870332232, 31.793001589044511 ] } },
{ "type": "Feature", "properties": { "element": "way", "id": 120402786, "name": null, "tourism": null, "amenity": null, "leisure": "park", "opening_hours": null, "website": null }, "geometry": { "type": "Point", "coordinates": [ 34.66470735, 31.7958641 ] } },
{ "type": "Feature", "properties": { "element": "way", "id": 120402802, "name": null, "tourism": null, "amenity": null, "leisure": "park", "opening_hours": null, "website": null }, "geometry": { "type": "Point", "coordinates": [ 34.665576440667436, 31.795025688016779 ] } },
{ "type": "Feature", "properties": { "element": "way", "id": 120402826, "name": "גן רמביה", "tourism": null, "amenity": null, "leisure": "park", "opening_hours": null, "website": null }, "geometry": { "type": "Point", "coordinates": [ 34.662680867012867, 31.788851090257772 ] } },
{ "type": "Feature", "properties": { "element": "way", "id": 120403129, "name": "גן אלכס", "tourism": null, "amenity": null, "leisure": "park", "opening_hours": null, "website": null }, "geometry": { "type": "Point", "coordinates": [ 34.655841939578188, 31.791123741093873 ] } },
{ "type": "Feature", "properties": { "element": "way", "id": 120403131, "name": null, "tourism": null, "amenity": null, "leisure": "park", "opening_hours": null, "website": null }, "geometry": { "type": "Point", "coordinates": [ 34.658416655212292, 31.789436189009141 ] } },
{ "type": "Feature", "properties": { "element": "way", "id": 120404501, "name": null, "tourism": null, "amenity": null, "leisure": "park", "opening_hours": null, "website": null }, "geometry": { "type": "Point", "coordinates": [ 34.658359452679534, 31.79523726749979 ] } },
{ "type": "Feature", "properties": { "element": "way", "id": 120404505, "name": null, "tourism": null, "amenity": null, "leisure": "park", "opening_hours": null, "website": null }, "geometry": { "type": "Point", "coordinates": [ 34.660286038284021, 31.795524265920282 ] } },
{ "type": "Feature", "properties": { "element": "way", "id": 120404508, "name": "גן מיכאל", "tourism": null, "amenity": null, "leisure": "park", "opening_hours": null, "website": null }, "geometry": { "type": "Point", "coordinates": [ 34.657723624416576, 31.790181330580371 ] } },
{ "type": "Feature", "properties": { "element": "way", "id": 120406427, "name": "גן מילמן", "tourism": null, "amenity": null, "leisure": "park", "opening_hours": null, "website": null }, "geometry": { "type": "Point", "coordinates": [ 34.653915074760107, 31.790840340172885 ] } },
{ "type": "Feature", "properties": { "element": "way", "id": 120793281, "name": null, "tourism": null, "amenity": null, "leisure": "park", "opening_hours": null, "website": null }, "geometry": { "type": "Point", "coordinates": [ 34.661120790863357, 31.797848634096027 ] } },
{ "type": "Feature", "properties": { "element": "way", "id": 120793285, "name": null, "tourism": null, "amenity": null, "leisure": "park", "opening_hours": null, "website": null }, "geometry": { "type": "Point", "coordinates": [ 34.665664440757631, 31.801334075957449 ] } },
{ "type": "Feature", "properties": { "element": "way", "id": 120794394, "name": null, "tourism": null, "amenity": null, "leisure": "park", "opening_hours": null, "website": null }, "geometry": { "type": "Point", "coordinates": [ 34.661576263241109, 31.801935371780441 ] } },
{ "type": "Feature", "properties": { "element": "way", "id": 120803586, "name": null, "tourism": null, "amenity": null, "leisure": "park", "opening_hours": null, "website": null }, "geometry": { "type": "Point", "coordinates": [ 34.644775376443476, 31.806197505788798 ] } },
{ "type": "Feature", "properties": { "element": "way", "id": 120803589, "name": null, "tourism": null, "amenity": null, "leisure": "park", "opening_hours": null, "website": null }, "geometry": { "type": "Point", "coordinates": [ 34.647404470467777, 31.805381493817986 ] } },
{ "type": "Feature", "properties": { "element": "way", "id": 121789179, "name": null, "tourism": null, "amenity": null, "leisure": "park", "opening_hours": null, "website": null }, "geometry": { "type": "Point", "coordinates": [ 34.630555745241203, 31.777258761111838 ] } },
{ "type": "Feature", "properties": { "element": "way", "id": 121789180, "name": null, "tourism": null, "amenity": null, "leisure": "park", "opening_hours": null, "website": null }, "geometry": { "type": "Point", "coordinates": [ 34.624613517582183, 31.778762616285047 ] } },
{ "type": "Feature", "properties": { "element": "way", "id": 121804383, "name": null, "tourism": null, "amenity": null, "leisure": "park", "opening_hours": null, "website": null }, "geometry": { "type": "Point", "coordinates": [ 34.630270995740872, 31.773044415183886 ] } },
{ "type": "Feature", "properties": { "element": "way", "id": 121805213, "name": null, "tourism": null, "amenity": null, "leisure": "park", "opening_hours": null, "website": null }, "geometry": { "type": "Point", "coordinates": [ 34.62926439434591, 31.783429972111296 ] } },
{ "type": "Feature", "properties": { "element": "way", "id": 121805623, "name": null, "tourism": null, "amenity": null, "leisure": "park", "opening_hours": null, "website": null }, "geometry": { "type": "Point", "coordinates": [ 34.631874940781948, 31.778618300010464 ] } },
{ "type": "Feature", "properties": { "element": "way", "id": 121809353, "name": null, "tourism": null, "amenity": null, "leisure": "park", "opening_hours": null, "website": null }, "geometry": { "type": "Point", "coordinates": [ 34.633680420534624, 31.767986428278707 ] } },
{ "type": "Feature", "properties": { "element": "way", "id": 121809354, "name": null, "tourism": null, "amenity": null, "leisure": "park", "opening_hours": null, "website": null }, "geometry": { "type": "Point", "coordinates": [ 34.629430646590365, 31.76865898355852 ] } },
{ "type": "Feature", "properties": { "element": "way", "id": 121809360, "name": null, "tourism": null, "amenity": null, "leisure": "park", "opening_hours": null, "website": null }, "geometry": { "type": "Point", "coordinates": [ 34.633309189563882, 31.769075383101015 ] } },
{ "type": "Feature", "properties": { "element": "way", "id": 121809365, "name": null, "tourism": null, "amenity": null, "leisure": "park", "opening_hours": null, "website": null }, "geometry": { "type": "Point", "coordinates": [ 34.626996442751441, 31.76985387016904 ] } },
{ "type": "Feature", "properties": { "element": "way", "id": 121809369, "name": null, "tourism": null, "amenity": null, "leisure": "park", "opening_hours": null, "website": null }, "geometry": { "type": "Point", "coordinates": [ 34.631864803767165, 31.7688666524101 ] } },
{ "type": "Feature", "properties": { "element": "way", "id": 121810681, "name": null, "tourism": null, "amenity": null, "leisure": "park", "opening_hours": null, "website": null }, "geometry": { "type": "Point", "coordinates": [ 34.638494055156961, 31.779590847707741 ] } },
{ "type": "Feature", "properties": { "element": "way", "id": 121810682, "name": null, "tourism": null, "amenity": null, "leisure": "park", "opening_hours": null, "website": null }, "geometry": { "type": "Point", "coordinates": [ 34.640798114101294, 31.781433474618222 ] } },
{ "type": "Feature", "properties": { "element": "way", "id": 166384197, "name": null, "tourism": null, "amenity": null, "leisure": "park", "opening_hours": null, "website": null }, "geometry": { "type": "Point", "coordinates": [ 34.63924262676607, 31.770970863470716 ] } },
{ "type": "Feature", "properties": { "element": "way", "id": 167170329, "name": null, "tourism": null, "amenity": null, "leisure": "park", "opening_hours": null, "website": null }, "geometry": { "type": "Point", "coordinates": [ 34.64517186478502, 31.789518991208261 ] } },
{ "type": "Feature", "properties": { "element": "way", "id": 167173548, "name": "מעבר העצמאות", "tourism": null, "amenity": null, "leisure": "park", "opening_hours": null, "website": null }, "geometry": { "type": "Point", "coordinates": [ 34.644440703962637, 31.790600121427737 ] } },
{ "type": "Feature", "properties": { "element": "way", "id": 167173563, "name": null, "tourism": null, "amenity": null, "leisure": "park", "opening_hours": null, "website": null }, "geometry": { "type": "Point", "coordinates": [ 34.6444621, 31.7907861 ] } },
{ "type": "Feature", "properties": { "element": "way", "id": 167441645, "name": "כיכר אילן רמון", "tourism": null, "amenity": null, "leisure": "park", "opening_hours": null, "website": null }, "geometry": { "type": "Point", "coordinates": [ 34.642945007495861, 31.788266319780373 ] } },
{ "type": "Feature", "properties": { "element": "way", "id": 168583905, "name": null, "tourism": null, "amenity": null, "leisure": "park", "opening_hours": null, "website": null }, "geometry": { "type": "Point", "coordinates": [ 34.642717986063246, 31.793336018299939 ] } },
{ "type": "Feature", "properties": { "element": "way", "id": 168965454, "name": null, "tourism": null, "amenity": null, "leisure": "park", "opening_hours": null, "website": null }, "geometry": { "type": "Point", "coordinates": [ 34.641624986113015, 31.793405807269245 ] } },
{ "type": "Feature", "properties": { "element": "way", "id": 168965455, "name": "גן מרכזי הקריה צפון", "tourism": null, "amenity": null, "leisure": "park", "opening_hours": null, "website": null }, "geometry": { "type": "Point", "coordinates": [ 34.641237893230155, 31.790920827748721 ] } },
{ "type": "Feature", "properties": { "element": "way", "id": 189573896, "name": "מעבר בני ברית העצמאות", "tourism": null, "amenity": null, "leisure": "park", "opening_hours": null, "website": null }, "geometry": { "type": "Point", "coordinates": [ 34.64853352450308, 31.791127449012968 ] } },
{ "type": "Feature", "properties": { "element": "way", "id": 189573917, "name": null, "tourism": null, "amenity": null, "leisure": "park", "opening_hours": null, "website": null }, "geometry": { "type": "Point", "coordinates": [ 34.645982094181811, 31.791947331994912 ] } },
{ "type": "Feature", "properties": { "element": "way", "id": 189573923, "name": null, "tourism": null, "amenity": null, "leisure": "park", "opening_hours": null, "website": null }, "geometry": { "type": "Point", "coordinates": [ 34.64513945, 31.79172605 ] } },
{ "type": "Feature", "properties": { "element": "way", "id": 189577388, "name": "גן מרכזי הקריה דרום", "tourism": null, "amenity": null, "leisure": "park", "opening_hours": null, "website": null }, "geometry": { "type": "Point", "coordinates": [ 34.640304715546655, 31.78839513268278 ] } },
{ "type": "Feature", "properties": { "element": "way", "id": 189578565, "name": null, "tourism": null, "amenity": null, "leisure": "park", "opening_hours": null, "website": null }, "geometry": { "type": "Point", "coordinates": [ 34.64271415525473, 31.785927403397238 ] } },
{ "type": "Feature", "properties": { "element": "way", "id": 189580109, "name": null, "tourism": null, "amenity": null, "leisure": "park", "opening_hours": null, "website": null }, "geometry": { "type": "Point", "coordinates": [ 34.6414082, 31.785828133333339 ] } },
{ "type": "Feature", "properties": { "element": "way", "id": 189580121, "name": null, "tourism": null, "amenity": null, "leisure": "park", "opening_hours": null, "website": null }, "geometry": { "type": "Point", "coordinates": [ 34.641589155440926, 31.785877856225358 ] } },
{ "type": "Feature", "properties": { "element": "way", "id": 189580126, "name": null, "tourism": null, "amenity": null, "leisure": "park", "opening_hours": null, "website": null }, "geometry": { "type": "Point", "coordinates": [ 34.641071789059083, 31.785429649405756 ] } },
{ "type": "Feature", "properties": { "element": "way", "id": 189583234, "name": null, "tourism": null, "amenity": null, "leisure": "park", "opening_hours": null, "website": null }, "geometry": { "type": "Point", "coordinates": [ 34.639874217166231, 31.784991421423701 ] } },
{ "type": "Feature", "properties": { "element": "way", "id": 189587433, "name": null, "tourism": null, "amenity": null, "leisure": "park", "opening_hours": null, "website": null }, "geometry": { "type": "Point", "coordinates": [ 34.644412777911121, 31.786967986348934 ] } },
{ "type": "Feature", "properties": { "element": "way", "id": 189597216, "name": null, "tourism": null, "amenity": null, "leisure": "park", "opening_hours": "24/7", "website": null }, "geometry": { "type": "Point", "coordinates": [ 34.644593445294305, 31.785788455804575 ] } },
{ "type": "Feature", "properties": { "element": "way", "id": 189598894, "name": null, "tourism": null, "amenity": null, "leisure": "park", "opening_hours": null, "website": null }, "geometry": { "type": "Point", "coordinates": [ 34.643119984394616, 31.78224374488272 ] } },
{ "type": "Feature", "properties": { "element": "way", "id": 189598897, "name": null, "tourism": null, "amenity": null, "leisure": "park", "opening_hours": null, "website": null }, "geometry": { "type": "Point", "coordinates": [ 34.644720563383842, 31.784307473166564 ] } },
{ "type": "Feature", "properties": { "element": "way", "id": 189599710, "name": null, "tourism": null, "amenity": null, "leisure": "park", "opening_hours": null, "website": null }, "geometry": { "type": "Point", "coordinates": [ 34.641546160676363, 31.783061095558729 ] } },
{ "type": "Feature", "properties": { "element": "way", "id": 189599819, "name": null, "tourism": null, "amenity": null, "leisure": "park", "opening_hours": null, "website": null }, "geometry": { "type": "Point", "coordinates": [ 34.647799028363856, 31.788946226039201 ] } },
{ "type": "Feature", "properties": { "element": "way", "id": 189599820, "name": null, "tourism": null, "amenity": null, "leisure": "park", "opening_hours": null, "website": null }, "geometry": { "type": "Point", "coordinates": [ 34.646994290836837, 31.792187749382578 ] } },
{ "type": "Feature", "properties": { "element": "way", "id": 189599918, "name": null, "tourism": null, "amenity": null, "leisure": "park", "opening_hours": null, "website": null }, "geometry": { "type": "Point", "coordinates": [ 34.639055451512398, 31.784731913325913 ] } },
{ "type": "Feature", "properties": { "element": "way", "id": 189731574, "name": null, "tourism": null, "amenity": null, "leisure": "park", "opening_hours": null, "website": null }, "geometry": { "type": "Point", "coordinates": [ 34.638161457626865, 31.79588917157399 ] } },
{ "type": "Feature", "properties": { "element": "way", "id": 189731595, "name": null, "tourism": null, "amenity": null, "leisure": "park", "opening_hours": null, "website": null }, "geometry": { "type": "Point", "coordinates": [ 34.638537049463366, 31.795277022549936 ] } },
{ "type": "Feature", "properties": { "element": "way", "id": 189731601, "name": "גן שער האריות", "tourism": null, "amenity": null, "leisure": "park", "opening_hours": null, "website": null }, "geometry": { "type": "Point", "coordinates": [ 34.637691622500896, 31.794577411980711 ] } },
{ "type": "Feature", "properties": { "element": "way", "id": 189731611, "name": null, "tourism": null, "amenity": null, "leisure": "park", "opening_hours": null, "website": null }, "geometry": { "type": "Point", "coordinates": [ 34.639421367432611, 31.795358226470825 ] } },
{ "type": "Feature", "properties": { "element": "way", "id": 189739578, "name": null, "tourism": null, "amenity": null, "leisure": "park", "opening_hours": null, "website": null }, "geometry": { "type": "Point", "coordinates": [ 34.635927808228089, 31.793322144606602 ] } },
{ "type": "Feature", "properties": { "element": "way", "id": 189739684, "name": null, "tourism": null, "amenity": null, "leisure": "park", "opening_hours": null, "website": null }, "geometry": { "type": "Point", "coordinates": [ 34.63765345, 31.79328235 ] } },
{ "type": "Feature", "properties": { "element": "way", "id": 190238284, "name": null, "tourism": null, "amenity": null, "leisure": "park", "opening_hours": null, "website": null }, "geometry": { "type": "Point", "coordinates": [ 34.632335146001793, 31.797038274757146 ] } },
{ "type": "Feature", "properties": { "element": "way", "id": 190238285, "name": null, "tourism": null, "amenity": null, "leisure": "park", "opening_hours": null, "website": null }, "geometry": { "type": "Point", "coordinates": [ 34.630835050165537, 31.795850771523394 ] } },
{ "type": "Feature", "properties": { "element": "way", "id": 190238597, "name": null, "tourism": null, "amenity": null, "leisure": "park", "opening_hours": null, "website": null }, "geometry": { "type": "Point", "coordinates": [ 34.633050067211222, 31.794952277528925 ] } },
{ "type": "Feature", "properties": { "element": "way", "id": 190238598, "name": null, "tourism": null, "amenity": null, "leisure": "park", "opening_hours": null, "website": null }, "geometry": { "type": "Point", "coordinates": [ 34.632141702009278, 31.796725302172884 ] } },
{ "type": "Feature", "properties": { "element": "way", "id": 190238600, "name": null, "tourism": null, "amenity": null, "leisure": "park", "opening_hours": null, "website": null }, "geometry": { "type": "Point", "coordinates": [ 34.632128533622861, 31.795062514613097 ] } },
{ "type": "Feature", "properties": { "element": "way", "id": 190902690, "name": null, "tourism": null, "amenity": null, "leisure": "park", "opening_hours": null, "website": null }, "geometry": { "type": "Point", "coordinates": [ 34.629513016361535, 31.790890574517512 ] } },
{ "type": "Feature", "properties": { "element": "way", "id": 190917892, "name": null, "tourism": null, "amenity": null, "leisure": "park", "opening_hours": null, "website": null }, "geometry": { "type": "Point", "coordinates": [ 34.629301578296392, 31.792084462326976 ] } },
{ "type": "Feature", "properties": { "element": "way", "id": 190917898, "name": null, "tourism": null, "amenity": null, "leisure": "park", "opening_hours": null, "website": null }, "geometry": { "type": "Point", "coordinates": [ 34.631569400263523, 31.792464695567585 ] } },
{ "type": "Feature", "properties": { "element": "way", "id": 190917904, "name": null, "tourism": null, "amenity": null, "leisure": "park", "opening_hours": null, "website": null }, "geometry": { "type": "Point", "coordinates": [ 34.63029679495785, 31.791988199939816 ] } },
{ "type": "Feature", "properties": { "element": "way", "id": 190917908, "name": null, "tourism": null, "amenity": null, "leisure": "park", "opening_hours": null, "website": null }, "geometry": { "type": "Point", "coordinates": [ 34.631891790699342, 31.792692309561811 ] } },
{ "type": "Feature", "properties": { "element": "way", "id": 190917912, "name": null, "tourism": null, "amenity": null, "leisure": "park", "opening_hours": null, "website": null }, "geometry": { "type": "Point", "coordinates": [ 34.629854029116572, 31.792004983500963 ] } },
{ "type": "Feature", "properties": { "element": "way", "id": 190917913, "name": null, "tourism": null, "amenity": null, "leisure": "park", "opening_hours": null, "website": null }, "geometry": { "type": "Point", "coordinates": [ 34.630982895053037, 31.792145014870325 ] } },
{ "type": "Feature", "properties": { "element": "way", "id": 191430744, "name": "פארק אשדוד-ים", "tourism": null, "amenity": null, "leisure": "park", "opening_hours": null, "website": null }, "geometry": { "type": "Point", "coordinates": [ 34.635371748239038, 31.79671045869885 ] } },
{ "type": "Feature", "properties": { "element": "way", "id": 191701166, "name": null, "tourism": null, "amenity": null, "leisure": "park", "opening_hours": null, "website": null }, "geometry": { "type": "Point", "coordinates": [ 34.648747587537606, 31.789032015522753 ] } },
{ "type": "Feature", "properties": { "element": "way", "id": 191702570, "name": "גן חרד", "tourism": null, "amenity": null, "leisure": "park", "opening_hours": null, "website": null }, "geometry": { "type": "Point", "coordinates": [ 34.652260051579475, 31.788808384995704 ] } },
{ "type": "Feature", "properties": { "element": "way", "id": 191967979, "name": "גן תמרה ויונינה", "tourism": null, "amenity": null, "leisure": "park", "opening_hours": null, "website": null }, "geometry": { "type": "Point", "coordinates": [ 34.64867646757147, 31.788617187551033 ] } },
{ "type": "Feature", "properties": { "element": "way", "id": 195398056, "name": "גן מרכזי י\"ז", "tourism": null, "amenity": null, "leisure": "park", "opening_hours": null, "website": null }, "geometry": { "type": "Point", "coordinates": [ 34.625801277138748, 31.76842971917306 ] } },
{ "type": "Feature", "properties": { "element": "way", "id": 234818035, "name": "Saih Square", "tourism": null, "amenity": null, "leisure": "park", "opening_hours": null, "website": null }, "geometry": { "type": "Point", "coordinates": [ 34.625718352702222, 31.773110429382633 ] } },
{ "type": "Feature", "properties": { "element": "way", "id": 235177344, "name": null, "tourism": null, "amenity": null, "leisure": "park", "opening_hours": null, "website": null }, "geometry": { "type": "Point", "coordinates": [ 34.66204865, 31.8017701 ] } },
{ "type": "Feature", "properties": { "element": "way", "id": 235663475, "name": null, "tourism": null, "amenity": null, "leisure": "park", "opening_hours": null, "website": null }, "geometry": { "type": "Point", "coordinates": [ 34.66369842884275, 31.800868201710351 ] } },
{ "type": "Feature", "properties": { "element": "way", "id": 236406813, "name": null, "tourism": null, "amenity": null, "leisure": "park", "opening_hours": null, "website": null }, "geometry": { "type": "Point", "coordinates": [ 34.66320845, 31.8017885 ] } },
{ "type": "Feature", "properties": { "element": "way", "id": 236735359, "name": "מוזיאון אשדוד קורין ממן", "tourism": "museum", "amenity": null, "leisure": null, "opening_hours": null, "website": null }, "geometry": { "type": "Point", "coordinates": [ 34.640361402903487, 31.798977417763517 ] } },
{ "type": "Feature", "properties": { "element": "way", "id": 236826438, "name": null, "tourism": null, "amenity": null, "leisure": "park", "opening_hours": null, "website": null }, "geometry": { "type": "Point", "coordinates": [ 34.639021657383651, 31.79974169178077 ] } },
{ "type": "Feature", "properties": { "element": "way", "id": 238281274, "name": null, "tourism": null, "amenity": null, "leisure": "park", "opening_hours": null, "website": null }, "geometry": { "type": "Point", "coordinates": [ 34.633375206377956, 31.770625021620297 ] } },
{ "type": "Feature", "properties": { "element": "way", "id": 238290198, "name": null, "tourism": null, "amenity": null, "leisure": "park", "opening_hours": null, "website": null }, "geometry": { "type": "Point", "coordinates": [ 34.636017702384599, 31.776236451604593 ] } },
{ "type": "Feature", "properties": { "element": "way", "id": 238290199, "name": null, "tourism": null, "amenity": null, "leisure": "park", "opening_hours": null, "website": null }, "geometry": { "type": "Point", "coordinates": [ 34.637232466666667, 31.776644366666662 ] } },
{ "type": "Feature", "properties": { "element": "way", "id": 238564698, "name": null, "tourism": null, "amenity": null, "leisure": "park", "opening_hours": null, "website": null }, "geometry": { "type": "Point", "coordinates": [ 34.64119575, 31.79643595 ] } },
{ "type": "Feature", "properties": { "element": "way", "id": 238564703, "name": null, "tourism": null, "amenity": null, "leisure": "park", "opening_hours": null, "website": null }, "geometry": { "type": "Point", "coordinates": [ 34.64159855, 31.79700615 ] } },
{ "type": "Feature", "properties": { "element": "way", "id": 238564709, "name": null, "tourism": null, "amenity": null, "leisure": "park", "opening_hours": null, "website": null }, "geometry": { "type": "Point", "coordinates": [ 34.6419923, 31.7975868 ] } },
{ "type": "Feature", "properties": { "element": "way", "id": 238564719, "name": null, "tourism": null, "amenity": null, "leisure": "park", "opening_hours": null, "website": null }, "geometry": { "type": "Point", "coordinates": [ 34.64240343230513, 31.798162902403483 ] } },
{ "type": "Feature", "properties": { "element": "way", "id": 238564728, "name": null, "tourism": null, "amenity": null, "leisure": "park", "opening_hours": null, "website": null }, "geometry": { "type": "Point", "coordinates": [ 34.643288767513276, 31.799488498315565 ] } },
{ "type": "Feature", "properties": { "element": "way", "id": 238842120, "name": null, "tourism": null, "amenity": null, "leisure": "park", "opening_hours": null, "website": null }, "geometry": { "type": "Point", "coordinates": [ 34.64399078006543, 31.798260565836227 ] } },
{ "type": "Feature", "properties": { "element": "way", "id": 238852441, "name": null, "tourism": null, "amenity": null, "leisure": "park", "opening_hours": null, "website": null }, "geometry": { "type": "Point", "coordinates": [ 34.642732882463363, 31.800040552894195 ] } },
{ "type": "Feature", "properties": { "element": "way", "id": 238857893, "name": "גן אורי", "tourism": null, "amenity": null, "leisure": "park", "opening_hours": null, "website": null }, "geometry": { "type": "Point", "coordinates": [ 34.637389616153989, 31.799790365116465 ] } },
{ "type": "Feature", "properties": { "element": "way", "id": 239196707, "name": null, "tourism": null, "amenity": null, "leisure": "park", "opening_hours": null, "website": null }, "geometry": { "type": "Point", "coordinates": [ 34.634300411712118, 31.770691954975717 ] } },
{ "type": "Feature", "properties": { "element": "way", "id": 239196757, "name": null, "tourism": null, "amenity": null, "leisure": "park", "opening_hours": null, "website": null }, "geometry": { "type": "Point", "coordinates": [ 34.635265616088354, 31.772122561706915 ] } },
{ "type": "Feature", "properties": { "element": "way", "id": 243521395, "name": "כיכר אלתא", "tourism": null, "amenity": null, "leisure": "park", "opening_hours": null, "website": null }, "geometry": { "type": "Point", "coordinates": [ 34.66265697334984, 31.795405291012898 ] } },
{ "type": "Feature", "properties": { "element": "way", "id": 245282144, "name": null, "tourism": null, "amenity": null, "leisure": "park", "opening_hours": null, "website": null }, "geometry": { "type": "Point", "coordinates": [ 34.64389735, 31.79935405 ] } },
{ "type": "Feature", "properties": { "element": "way", "id": 250738165, "name": null, "tourism": null, "amenity": null, "leisure": "park", "opening_hours": null, "website": null }, "geometry": { "type": "Point", "coordinates": [ 34.660140613751423, 31.827592691134956 ] } },
{ "type": "Feature", "properties": { "element": "way", "id": 250738171, "name": null, "tourism": null, "amenity": null, "leisure": "park", "opening_hours": null, "website": null }, "geometry": { "type": "Point", "coordinates": [ 34.656305833521323, 31.822864025290738 ] } },
{ "type": "Feature", "properties": { "element": "way", "id": 369045669, "name": null, "tourism": null, "amenity": null, "leisure": "park", "opening_hours": null, "website": null }, "geometry": { "type": "Point", "coordinates": [ 34.667099838406422, 31.81622039605427 ] } },
{ "type": "Feature", "properties": { "element": "way", "id": 386507651, "name": null, "tourism": null, "amenity": null, "leisure": "park", "opening_hours": null, "website": null }, "geometry": { "type": "Point", "coordinates": [ 34.652323326254226, 31.804038706489489 ] } },
{ "type": "Feature", "properties": { "element": "way", "id": 386507652, "name": null, "tourism": null, "amenity": null, "leisure": "park", "opening_hours": null, "website": null }, "geometry": { "type": "Point", "coordinates": [ 34.65297085550467, 31.804342753266649 ] } },
{ "type": "Feature", "properties": { "element": "way", "id": 422248887, "name": null, "tourism": null, "amenity": null, "leisure": "park", "opening_hours": null, "website": null }, "geometry": { "type": "Point", "coordinates": [ 34.622112693159963, 31.770390329321867 ] } },
{ "type": "Feature", "properties": { "element": "way", "id": 433297983, "name": null, "tourism": null, "amenity": null, "leisure": "park", "opening_hours": null, "website": null }, "geometry": { "type": "Point", "coordinates": [ 34.630362386198009, 31.768251847422505 ] } },
{ "type": "Feature", "properties": { "element": "way", "id": 447043953, "name": "rock garden", "tourism": "attraction", "amenity": null, "leisure": null, "opening_hours": null, "website": null }, "geometry": { "type": "Point", "coordinates": [ 34.635527107275259, 31.797596972280658 ] } },
{ "type": "Feature", "properties": { "element": "way", "id": 483972877, "name": null, "tourism": null, "amenity": null, "leisure": "park", "opening_hours": null, "website": null }, "geometry": { "type": "Point", "coordinates": [ 34.640288495956426, 31.772389062023016 ] } },
{ "type": "Feature", "properties": { "element": "way", "id": 484170268, "name": null, "tourism": null, "amenity": null, "leisure": "park", "opening_hours": null, "website": null }, "geometry": { "type": "Point", "coordinates": [ 34.642655986330311, 31.77437034138147 ] } },
{ "type": "Feature", "properties": { "element": "way", "id": 547646782, "name": null, "tourism": null, "amenity": null, "leisure": "park", "opening_hours": null, "website": null }, "geometry": { "type": "Point", "coordinates": [ 34.659226614171516, 31.783496965875148 ] } },
{ "type": "Feature", "properties": { "element": "way", "id": 552563670, "name": "יאן פאר", "tourism": null, "amenity": null, "leisure": "park", "opening_hours": null, "website": null }, "geometry": { "type": "Point", "coordinates": [ 34.631908498167064, 31.776662421460752 ] } },
{ "type": "Feature", "properties": { "element": "way", "id": 552564346, "name": "רכבים", "tourism": null, "amenity": null, "leisure": "park", "opening_hours": null, "website": null }, "geometry": { "type": "Point", "coordinates": [ 34.656090793332488, 31.815179759785487 ] } },
{ "type": "Feature", "properties": { "element": "way", "id": 552924384, "name": null, "tourism": null, "amenity": null, "leisure": "park", "opening_hours": null, "website": null }, "geometry": { "type": "Point", "coordinates": [ 34.634308931840373, 31.776912625605625 ] } },
{ "type": "Feature", "properties": { "element": "way", "id": 553139812, "name": null, "tourism": null, "amenity": null, "leisure": "park", "opening_hours": null, "website": null }, "geometry": { "type": "Point", "coordinates": [ 34.630448531828272, 31.789778126366119 ] } },
{ "type": "Feature", "properties": { "element": "way", "id": 566147591, "name": null, "tourism": null, "amenity": null, "leisure": "park", "opening_hours": null, "website": null }, "geometry": { "type": "Point", "coordinates": [ 34.655993084893211, 31.784999782713893 ] } },
{ "type": "Feature", "properties": { "element": "way", "id": 589939044, "name": null, "tourism": null, "amenity": null, "leisure": "park", "opening_hours": null, "website": null }, "geometry": { "type": "Point", "coordinates": [ 34.638046028480787, 31.772199896764054 ] } },
{ "type": "Feature", "properties": { "element": "way", "id": 661188048, "name": "Heshvan Park", "tourism": null, "amenity": null, "leisure": "park", "opening_hours": null, "website": null }, "geometry": { "type": "Point", "coordinates": [ 34.6407222, 31.78289125 ] } },
{ "type": "Feature", "properties": { "element": "way", "id": 706613184, "name": "גן יעקב חזן", "tourism": null, "amenity": null, "leisure": "park", "opening_hours": null, "website": null }, "geometry": { "type": "Point", "coordinates": [ 34.646168583492774, 31.776399554891896 ] } },
{ "type": "Feature", "properties": { "element": "way", "id": 709683715, "name": "אמפי אשדוד", "tourism": null, "amenity": "theatre", "leisure": null, "opening_hours": null, "website": null }, "geometry": { "type": "Point", "coordinates": [ 34.635797462325662, 31.798758096337036 ] } },
{ "type": "Feature", "properties": { "element": "way", "id": 710676266, "name": "גן פורצי הדרך", "tourism": null, "amenity": null, "leisure": "park", "opening_hours": null, "website": null }, "geometry": { "type": "Point", "coordinates": [ 34.647579765400742, 31.780495573926995 ] } },
{ "type": "Feature", "properties": { "element": "way", "id": 710676267, "name": "גן פולק", "tourism": null, "amenity": null, "leisure": "park", "opening_hours": null, "website": null }, "geometry": { "type": "Point", "coordinates": [ 34.6494269, 31.7818098 ] } },
{ "type": "Feature", "properties": { "element": "way", "id": 888871692, "name": "גן רשב\"י", "tourism": null, "amenity": null, "leisure": "park", "opening_hours": null, "website": null }, "geometry": { "type": "Point", "coordinates": [ 34.661020581327172, 31.789406533378301 ] } },
{ "type": "Feature", "properties": { "element": "way", "id": 1051200687, "name": null, "tourism": null, "amenity": null, "leisure": "park", "opening_hours": null, "website": null }, "geometry": { "type": "Point", "coordinates": [ 34.634165970556637, 31.789123324805864 ] } },
{ "type": "Feature", "properties": { "element": "way", "id": 1051200688, "name": null, "tourism": null, "amenity": null, "leisure": "park", "opening_hours": null, "website": null }, "geometry": { "type": "Point", "coordinates": [ 34.633381510681794, 31.789612889348472 ] } },
{ "type": "Feature", "properties": { "element": "way", "id": 1051200689, "name": null, "tourism": null, "amenity": null, "leisure": "park", "opening_hours": null, "website": null }, "geometry": { "type": "Point", "coordinates": [ 34.63658297026074, 31.787466208925323 ] } },
{ "type": "Feature", "properties": { "element": "way", "id": 1271980013, "name": null, "tourism": null, "amenity": null, "leisure": "park", "opening_hours": null, "website": null }, "geometry": { "type": "Point", "coordinates": [ 34.666975278056078, 31.791724474125314 ] } },
{ "type": "Feature", "properties": { "element": "way", "id": 1277765685, "name": "פארק לכיש", "tourism": null, "amenity": null, "leisure": "park", "opening_hours": null, "website": null }, "geometry": { "type": "Point", "coordinates": [ 34.65130300971029, 31.817986492126284 ] } },
{ "type": "Feature", "properties": { "element": "way", "id": 1282102917, "name": null, "tourism": null, "amenity": null, "leisure": "park", "opening_hours": null, "website": null }, "geometry": { "type": "Point", "coordinates": [ 34.630449228312166, 31.795497003645377 ] } },
{ "type": "Feature", "properties": { "element": "way", "id": 1282102918, "name": null, "tourism": null, "amenity": null, "leisure": "park", "opening_hours": null, "website": null }, "geometry": { "type": "Point", "coordinates": [ 34.630714095971037, 31.794638743304557 ] } },
{ "type": "Feature", "properties": { "element": "way", "id": 1282102919, "name": null, "tourism": null, "amenity": null, "leisure": "park", "opening_hours": null, "website": null }, "geometry": { "type": "Point", "coordinates": [ 34.630954975347699, 31.79411661010354 ] } },
{ "type": "Feature", "properties": { "element": "way", "id": 1282102920, "name": null, "tourism": null, "amenity": null, "leisure": "park", "opening_hours": null, "website": null }, "geometry": { "type": "Point", "coordinates": [ 34.630652210100422, 31.793538165528599 ] } },
{ "type": "Feature", "properties": { "element": "way", "id": 1282102922, "name": null, "tourism": null, "amenity": null, "leisure": "park", "opening_hours": null, "website": null }, "geometry": { "type": "Point", "coordinates": [ 34.630018051624596, 31.793344180024302 ] } },
{ "type": "Feature", "properties": { "element": "way", "id": 1282102923, "name": null, "tourism": null, "amenity": null, "leisure": "park", "opening_hours": null, "website": null }, "geometry": { "type": "Point", "coordinates": [ 34.629360381206808, 31.793535819175954 ] } },
{ "type": "Feature", "properties": { "element": "way", "id": 1282102924, "name": null, "tourism": null, "amenity": null, "leisure": "park", "opening_hours": null, "website": null }, "geometry": { "type": "Point", "coordinates": [ 34.630102964146857, 31.794917734612973 ] } },
{ "type": "Feature", "properties": { "element": "way", "id": 1282102952, "name": null, "tourism": null, "amenity": null, "leisure": "park", "opening_hours": null, "website": null }, "geometry": { "type": "Point", "coordinates": [ 34.644169914064321, 31.770901287249977 ] } },
{ "type": "Feature", "properties": { "element": "way", "id": 1282102953, "name": null, "tourism": null, "amenity": null, "leisure": "park", "opening_hours": null, "website": null }, "geometry": { "type": "Point", "coordinates": [ 34.645489921276443, 31.771253404818648 ] } },
{ "type": "Feature", "properties": { "element": "way", "id": 1282102967, "name": null, "tourism": null, "amenity": null, "leisure": "park", "opening_hours": null, "website": null }, "geometry": { "type": "Point", "coordinates": [ 34.637251012913985, 31.770864620326588 ] } },
{ "type": "Feature", "properties": { "element": "way", "id": 1282102989, "name": null, "tourism": null, "amenity": null, "leisure": "park", "opening_hours": null, "website": null }, "geometry": { "type": "Point", "coordinates": [ 34.628716275252941, 31.766765066822323 ] } },
{ "type": "Feature", "properties": { "element": "way", "id": 1282103003, "name": null, "tourism": null, "amenity": null, "leisure": "park", "opening_hours": null, "website": null }, "geometry": { "type": "Point", "coordinates": [ 34.631179273665083, 31.765495075009937 ] } },
{ "type": "Feature", "properties": { "element": "way", "id": 1282103005, "name": null, "tourism": null, "amenity": null, "leisure": "park", "opening_hours": null, "website": null }, "geometry": { "type": "Point", "coordinates": [ 34.624934205826783, 31.771586111382941 ] } },
{ "type": "Feature", "properties": { "element": "way", "id": 1354059507, "name": null, "tourism": "attraction", "amenity": null, "leisure": null, "opening_hours": null, "website": null }, "geometry": { "type": "Point", "coordinates": [ 34.668731008334326, 31.782918976741136 ] } },
{ "type": "Feature", "properties": { "element": "way", "id": 1367254913, "name": "Lachish Park", "tourism": null, "amenity": null, "leisure": "park", "opening_hours": null, "website": null }, "geometry": { "type": "Point", "coordinates": [ 34.65109369405242, 31.818054503414867 ] } }
]
}
